[{"OBJECT_NAME":"K-HERO","OBJECT_ID":"2025-274L","EPOCH":"2026-03-09T07:34:25.128768","MEAN_MOTION":14.93525062,"ECCENTRICITY":0.00141369,"INCLINATION":97.7443,"RA_OF_ASC_NODE":359.1816,"ARG_OF_PERICENTER":357.698,"MEAN_ANOMALY":2.4172,"EPHEMERIS_TYPE":0,"CLASSIFICATION_TYPE":"U","NORAD_CAT_ID":66660,"ELEMENT_SET_NO":999,"REV_AT_EPOCH":1532,"BSTAR":0.00026499368,"MEAN_MOTION_DOT":2.739e-5,"MEAN_MOTION_DDOT":0},{"OBJECT_NAME":"ELISA E12","OBJECT_ID":"2011-076D","EPOCH":"2026-03-09T21:55:09.308352","MEAN_MOTION":14.92421769,"ECCENTRICITY":0.00021236,"INCLINATION":97.6519,"RA_OF_ASC_NODE":97.7616,"ARG_OF_PERICENTER":107.7768,"MEAN_ANOMALY":252.3684,"EPHEMERIS_TYPE":0,"CLASSIFICATION_TYPE":"U","NORAD_CAT_ID":38010,"ELEMENT_SET_NO":999,"REV_AT_EPOCH":76441,"BSTAR":0.00016008382,"MEAN_MOTION_DOT":1.585e-5,"MEAN_MOTION_DDOT":0}]
